start=new Date('2022-11-17T00:00:00.000Z').valueOf();
sats=[{"MEAN_MOTION":"15.01266141","MEAN_MOTION_DDOT":"0.0000000000000","TLE_LINE1":"1 53471U 22099G   22320.77582948 -.00000052  00000-0  50073-6 0  9990","REF_FRAME":"TEME","PERIAPSIS":"562.567","NORAD_CAT_ID":"53471","COUNTRY_CODE":"US","OBJECT_ID":"2022-099G","MEAN_ELEMENT_THEORY":"SGP4","RCS_SIZE":"LARGE","REV_AT_EPOCH":"1460","APOAPSIS":"563.418","EPHEMERIS_TYPE":"0","ELEMENT_SET_NO":"999","ARG_OF_PERICENTER":"255.8367","SEMIMAJOR_AXIS":"6941.128","RA_OF_ASC_NODE":"79.8775","MEAN_MOTION_DOT":"-0.00000052","CENTER_NAME":"EARTH","SITE":"AFWTR","EPOCH":"2022-11-16T18:37:11.667072","DECAY_DATE":null,"OBJECT_TYPE":"PAYLOAD","PERIOD":"95.919","CLASSIFICATION_TYPE":"U","TIME_SYSTEM":"UTC","ECCENTRICITY":"0.00006130","GP_ID":"218018919","TLE_LINE2":"2 53471  97.6544  79.8775 0000613 255.8367 104.2789 15.01266141 14605","INCLINATION":"97.6544","LAUNCH_DATE":"2022-08-12","OBJECT_NAME":"STARLINK-4316","MEAN_ANOMALY":"104.2789","FILE":"3660705","BSTAR":"0.00000050073000"},{"ECCENTRICITY":"0.00005820","GP_ID":"218017756","TLE_LINE2":"2 53472  97.6528  79.8822 0000582 355.6412   4.4807 15.01275583 14608","LAUNCH_DATE":"2022-08-12","INCLINATION":"97.6528","OBJECT_NAME":"STARLINK-4447","MEAN_ANOMALY":"4.4807","FILE":"3660705","BSTAR":"0.00029651000000","DECAY_DATE":null,"OBJECT_TYPE":"PAYLOAD","PERIOD":"95.918","CLASSIFICATION_TYPE":"U","TIME_SYSTEM":"UTC","REV_AT_EPOCH":"1460","APOAPSIS":"563.368","EPHEMERIS_TYPE":"0","ELEMENT_SET_NO":"999","ARG_OF_PERICENTER":"355.6412","SEMIMAJOR_AXIS":"6941.099","RA_OF_ASC_NODE":"79.8822","MEAN_MOTION_DOT":"0.00003753","SITE":"AFWTR","CENTER_NAME":"EARTH","EPOCH":"2022-11-16T18:39:51.405984","MEAN_MOTION":"15.01275583","TLE_LINE1":"1 53472U 22099H   22320.77767831  .00003753  00000-0  29651-3 0  9992","MEAN_MOTION_DDOT":"0.0000000000000","REF_FRAME":"TEME","PERIAPSIS":"562.560","OBJECT_ID":"2022-099H","COUNTRY_CODE":"US","NORAD_CAT_ID":"53472","MEAN_ELEMENT_THEORY":"SGP4","RCS_SIZE":"LARGE"},{"TLE_LINE1":"1 53473U 22099J   22320.77214089 -.00000007  00000-0  40221-5 0  9993","MEAN_MOTION_DDOT":"0.0000000000000","REF_FRAME":"TEME","MEAN_MOTION":"15.01257268","PERIAPSIS":"562.904","OBJECT_ID":"2022-099J","COUNTRY_CODE":"US","NORAD_CAT_ID":"53473","RCS_SIZE":"LARGE","MEAN_ELEMENT_THEORY":"SGP4","REV_AT_EPOCH":"1460","APOAPSIS":"563.137","SEMIMAJOR_AXIS":"6941.155","EPHEMERIS_TYPE":"0","ELEMENT_SET_NO":"999","ARG_OF_PERICENTER":"281.0094","MEAN_MOTION_DOT":"-0.00000007","SITE":"AFWTR","CENTER_NAME":"EARTH","RA_OF_ASC_NODE":"79.8715","EPOCH":"2022-11-16T18:31:52.972896","DECAY_DATE":null,"OBJECT_TYPE":"PAYLOAD","PERIOD":"95.920","CLASSIFICATION_TYPE":"U","TIME_SYSTEM":"UTC","ECCENTRICITY":"0.00001680","TLE_LINE2":"2 53473  97.6542  79.8715 0000168 281.0094  79.1111 15.01257268 14601","LAUNCH_DATE":"2022-08-12","INCLINATION":"97.6542","GP_ID":"218017921","OBJECT_NAME":"STARLINK-4383","MEAN_ANOMALY":"79.1111","BSTAR":"0.00000402210000","FILE":"3660705"},{"TIME_SYSTEM":"UTC","CLASSIFICATION_TYPE":"U","DECAY_DATE":null,"PERIOD":"95.919","OBJECT_TYPE":"PAYLOAD","MEAN_ANOMALY":"329.7266","OBJECT_NAME":"STARLINK-4445","BSTAR":"0.00013273000000","FILE":"3660705","ECCENTRICITY":"0.00006100","TLE_LINE2":"2 53474  97.6563  79.9321 0000610  30.3993 329.7266 15.01266469 14613","LAUNCH_DATE":"2022-08-12","INCLINATION":"97.6563","GP_ID":"218018431","OBJECT_ID":"2022-099K","COUNTRY_CODE":"US","NORAD_CAT_ID":"53474","RCS_SIZE":"LARGE","MEAN_ELEMENT_THEORY":"SGP4","REF_FRAME":"TEME","MEAN_MOTION_DDOT":"0.0000000000000","TLE_LINE1":"1 53474U 22099K   22320.83162746  .00001647  00000-0  13273-3 0  9998","MEAN_MOTION":"15.01266469","PERIAPSIS":"562.568","CENTER_NAME":"EARTH","SITE":"AFWTR","MEAN_MOTION_DOT":"0.00001647","RA_OF_ASC_NODE":"79.9321","EPOCH":"2022-11-16T19:57:32.612544","APOAPSIS":"563.415","REV_AT_EPOCH":"1461","SEMIMAJOR_AXIS":"6941.127","ELEMENT_SET_NO":"999","ARG_OF_PERICENTER":"30.3993","EPHEMERIS_TYPE":"0"},{"OBJECT_ID":"2022-099L","COUNTRY_CODE":"US","NORAD_CAT_ID":"53475","RCS_SIZE":"LARGE","MEAN_ELEMENT_THEORY":"SGP4","REF_FRAME":"TEME","TLE_LINE1":"1 53475U 22099L   22320.30371246  .00004930  00000-0  38797-3 0  9994","MEAN_MOTION_DDOT":"0.0000000000000","MEAN_MOTION":"15.01277419","PERIAPSIS":"562.721","CENTER_NAME":"EARTH","SITE":"AFWTR","MEAN_MOTION_DOT":"0.00004930","RA_OF_ASC_NODE":"79.4086","EPOCH":"2022-11-16T07:17:20.756544","APOAPSIS":"563.195","REV_AT_EPOCH":"1523","SEMIMAJOR_AXIS":"6941.093","ELEMENT_SET_NO":"999","ARG_OF_PERICENTER":"293.3582","EPHEMERIS_TYPE":"0","TIME_SYSTEM":"UTC","CLASSIFICATION_TYPE":"U","DECAY_DATE":null,"PERIOD":"95.918","OBJECT_TYPE":"PAYLOAD","MEAN_ANOMALY":"66.7606","OBJECT_NAME":"STARLINK-4389","BSTAR":"0.00038797000000","FILE":"3659788","ECCENTRICITY":"0.00003410","TLE_LINE2":"2 53475  97.6535  79.4086 0000341 293.3582  66.7606 15.01277419 15234","INCLINATION":"97.6535","LAUNCH_DATE":"2022-08-12","GP_ID":"217974183"},{"OBJECT_TYPE":"PAYLOAD","PERIOD":"95.920","DECAY_DATE":null,"CLASSIFICATION_TYPE":"U","TIME_SYSTEM":"UTC","GP_ID":"218018100","TLE_LINE2":"2 53476  97.6530  79.8756 0000570 282.4715  77.6445 15.01258713 14607","INCLINATION":"97.6530","LAUNCH_DATE":"2022-08-12","ECCENTRICITY":"0.00005700","FILE":"3660705","BSTAR":"0.00003564000000","OBJECT_NAME":"STARLINK-4378","MEAN_ANOMALY":"77.6445","PERIAPSIS":"562.620","MEAN_MOTION":"15.01258713","TLE_LINE1":"1 53476U 22099M   22320.77398896  .00000399  00000-0  35640-4 0  9996","MEAN_MOTION_DDOT":"0.0000000000000","REF_FRAME":"TEME","MEAN_ELEMENT_THEORY":"SGP4","RCS_SIZE":"LARGE","COUNTRY_CODE":"US","OBJECT_ID":"2022-099M","NORAD_CAT_ID":"53476","EPHEMERIS_TYPE":"0","ELEMENT_SET_NO":"999","ARG_OF_PERICENTER":"282.4715","SEMIMAJOR_AXIS":"6941.151","REV_AT_EPOCH":"1460","APOAPSIS":"563.411","EPOCH":"2022-11-16T18:34:32.646144","RA_OF_ASC_NODE":"79.8756","MEAN_MOTION_DOT":"0.00000399","SITE":"AFWTR","CENTER_NAME":"EARTH"},{"DECAY_DATE":null,"OBJECT_TYPE":"PAYLOAD","PERIOD":"95.919","CLASSIFICATION_TYPE":"U","TIME_SYSTEM":"UTC","ECCENTRICITY":"0.00010300","INCLINATION":"97.6556","TLE_LINE2":"2 53477  97.6556  79.9310 0001030  10.6733 349.4513 15.01266073 15319","LAUNCH_DATE":"2022-08-12","GP_ID":"218018265","OBJECT_NAME":"STARLINK-4412","MEAN_ANOMALY":"349.4513","BSTAR":"0.00004793800000","FILE":"3660705","TLE_LINE1":"1 53477U 22099N   22320.83323137  .00000557  00000-0  47938-4 0  9999","MEAN_MOTION_DDOT":"0.0000000000000","REF_FRAME":"TEME","MEAN_MOTION":"15.01266073","PERIAPSIS":"562.278","COUNTRY_CODE":"US","OBJECT_ID":"2022-099N","NORAD_CAT_ID":"53477","RCS_SIZE":"LARGE","MEAN_ELEMENT_THEORY":"SGP4","REV_AT_EPOCH":"1531","APOAPSIS":"563.708","SEMIMAJOR_AXIS":"6941.128","EPHEMERIS_TYPE":"0","ELEMENT_SET_NO":"999","ARG_OF_PERICENTER":"10.6733","MEAN_MOTION_DOT":"0.00000557","SITE":"AFWTR","CENTER_NAME":"EARTH","RA_OF_ASC_NODE":"79.9310","EPOCH":"2022-11-16T19:59:51.190368"},{"GP_ID":"217990244","TLE_LINE2":"2 53478  97.6557  79.4112 0000297 331.2232  28.8976 15.01248383 14770","INCLINATION":"97.6557","LAUNCH_DATE":"2022-08-12","ECCENTRICITY":"0.00002970","FILE":"3660553","BSTAR":"0.00017604000000","MEAN_ANOMALY":"28.8976","OBJECT_NAME":"STARLINK-4433","PERIOD":"95.920","OBJECT_TYPE":"PAYLOAD","DECAY_DATE":null,"TIME_SYSTEM":"UTC","CLASSIFICATION_TYPE":"U","ELEMENT_SET_NO":"999","ARG_OF_PERICENTER":"331.2232","EPHEMERIS_TYPE":"0","SEMIMAJOR_AXIS":"6941.183","APOAPSIS":"563.254","REV_AT_EPOCH":"1477","EPOCH":"2022-11-16T07:20:23.582400","RA_OF_ASC_NODE":"79.4112","SITE":"AFWTR","CENTER_NAME":"EARTH","MEAN_MOTION_DOT":"0.00002202","PERIAPSIS":"562.842","MEAN_MOTION":"15.01248383","REF_FRAME":"TEME","TLE_LINE1":"1 53478U 22099P   22320.30582850  .00002202  00000-0  17604-3 0  9996","MEAN_MOTION_DDOT":"0.0000000000000","MEAN_ELEMENT_THEORY":"SGP4","RCS_SIZE":"LARGE","COUNTRY_CODE":"US","OBJECT_ID":"2022-099P","NORAD_CAT_ID":"53478"},{"MEAN_MOTION":"15.01269304","TLE_LINE1":"1 53479U 22099Q   22320.36481965  .00004272  00000-0  33690-3 0  9990","MEAN_MOTION_DDOT":"0.0000000000000","REF_FRAME":"TEME","PERIAPSIS":"562.126","NORAD_CAT_ID":"53479","COUNTRY_CODE":"US","OBJECT_ID":"2022-099Q","MEAN_ELEMENT_THEORY":"SGP4","RCS_SIZE":"LARGE","REV_AT_EPOCH":"1454","APOAPSIS":"563.840","EPHEMERIS_TYPE":"0","ELEMENT_SET_NO":"999","ARG_OF_PERICENTER":"350.3197","SEMIMAJOR_AXIS":"6941.118","RA_OF_ASC_NODE":"79.4703","MEAN_MOTION_DOT":"0.00004272","CENTER_NAME":"EARTH","SITE":"AFWTR","EPOCH":"2022-11-16T08:45:20.417760","DECAY_DATE":null,"OBJECT_TYPE":"PAYLOAD","PERIOD":"95.919","CLASSIFICATION_TYPE":"U","TIME_SYSTEM":"UTC","ECCENTRICITY":"0.00012350","GP_ID":"217974548","INCLINATION":"97.6552","TLE_LINE2":"2 53479  97.6552  79.4703 0001235 350.3197   9.8003 15.01269304 14548","LAUNCH_DATE":"2022-08-12","OBJECT_NAME":"STARLINK-4436","MEAN_ANOMALY":"9.8003","FILE":"3659788","BSTAR":"0.00033690000000"},{"MEAN_ANOMALY":"225.2682","OBJECT_NAME":"STARLINK-4442","FILE":"3659788","BSTAR":"0.00047391000000","ECCENTRICITY":"0.00008960","GP_ID":"217974877","INCLINATION":"97.6552","TLE_LINE2":"2 53480  97.6552  79.4721 0000896 134.8615 225.2682 15.01267099 14548","LAUNCH_DATE":"2022-08-12","TIME_SYSTEM":"UTC","CLASSIFICATION_TYPE":"U","DECAY_DATE":null,"PERIOD":"95.919","OBJECT_TYPE":"PAYLOAD","RA_OF_ASC_NODE":"79.4721","CENTER_NAME":"EARTH","SITE":"AFWTR","MEAN_MOTION_DOT":"0.00006034","EPOCH":"2022-11-16T08:50:41.111232","APOAPSIS":"563.612","REV_AT_EPOCH":"1454","ELEMENT_SET_NO":"999","ARG_OF_PERICENTER":"134.8615","EPHEMERIS_TYPE":"0","SEMIMAJOR_AXIS":"6941.125","OBJECT_ID":"2022-099R","COUNTRY_CODE":"US","NORAD_CAT_ID":"53480","MEAN_ELEMENT_THEORY":"SGP4","RCS_SIZE":"LARGE","MEAN_MOTION":"15.01267099","REF_FRAME":"TEME","MEAN_MOTION_DDOT":"0.0000000000000","TLE_LINE1":"1 53480U 22099R   22320.36853138  .00006034  00000-0  47391-3 0  9998","PERIAPSIS":"562.368"}];
